{
    "links": {
        "self": "http://www.neowsapp.com/rest/v1/neo/3435546?api_key=iIulBulltgU6a56xZRHN4H3l9WmuAYTsLGpBGhQ2"
    },
    "id": "3435546",
    "neo_reference_id": "3435546",
    "name": "(2008 VE)",
    "designation": "2008 VE",
    "nasa_jpl_url": "http://ssd.jpl.nasa.gov/sbdb.cgi?sstr=3435546",
    "absolute_magnitude_h": 22.2,
    "estimated_diameter": {
        "kilometers": {
            "estimated_diameter_min": 0.096506147,
            "estimated_diameter_max": 0.2157943048
        },
        "meters": {
            "estimated_diameter_min": 96.5061469579,
            "estimated_diameter_max": 215.7943048444
        },
        "miles": {
            "estimated_diameter_min": 0.059966121,
            "estimated_diameter_max": 0.134088323
        },
        "feet": {
            "estimated_diameter_min": 316.6212271853,
            "estimated_diameter_max": 707.9865871058
        }
    },
    "is_potentially_hazardous_asteroid": false,
    "close_approach_data": [
        {
            "close_approach_date": "1902-11-12",
            "close_approach_date_full": "1902-Nov-12 10:02",
            "epoch_date_close_approach": -2118664680000,
            "relative_velocity": {
                "kilometers_per_second": "20.4145597965",
                "kilometers_per_hour": "73492.4152674799",
                "miles_per_hour": "45665.3288088405"
            },
            "miss_distance": {
                "astronomical": "0.3474488589",
                "lunar": "135.1576061121",
                "kilometers": "51977609.225370543",
                "miles": "32297388.7228297734"
            },
            "orbiting_body": "Earth"
        },
        {
            "close_approach_date": "1909-08-20",
            "close_approach_date_full": "1909-Aug-20 09:58",
            "epoch_date_close_approach": -1904997720000,
            "relative_velocity": {
                "kilometers_per_second": "4.6557796657",
                "kilometers_per_hour": "16760.8067964022",
                "miles_per_hour": "10414.5135341311"
            },
            "miss_distance": {
                "astronomical": "1.3043872824",
                "lunar": "507.4066528536",
                "kilometers": "195133559.102128488",
                "miles": "121250371.1716416144"
            },
            "orbiting_body": "Juptr"
        },
        {
            "close_approach_date": "2008-10-07",
            "close_approach_date_full": "2008-Oct-07 02:06",
            "epoch_date_close_approach": 1223345160000,
            "relative_velocity": {
                "kilometers_per_second": "9.6635300391",
                "kilometers_per_hour": "34788.7081406523",
                "miles_per_hour": "21616.3503443959"
            },
            "miss_distance": {
                "astronomical": "0.0808166506",
                "lunar": "31.4376770834",
                "kilometers": "12089998.790294222",
                "miles": "7512376.8947433836"
            },
            "orbiting_body": "Earth"
        },
        {
            "close_approach_date": "2028-07-08",
            "close_approach_date_full": "2028-Jul-08 19:11",
            "epoch_date_close_approach": 1846696260000,
            "relative_velocity": {
                "kilometers_per_second": "4.2669951022",
                "kilometers_per_hour": "15361.1823679205",
                "miles_per_hour": "9544.8413441115"
            },
            "miss_distance": {
                "astronomical": "1.2928397367",
                "lunar": "502.9146575763",
                "kilometers": "193406070.861680829",
                "miles": "120176959.7537762802"
            },
            "orbiting_body": "Juptr"
        }
    ],
    "orbital_data": {
        "orbit_id": "16",
        "orbit_determination_date": "2017-04-06 09:02:18",
        "first_observation_date": "2008-11-01",
        "last_observation_date": "2008-12-02",
        "data_arc_in_days": 31,
        "observations_used": 53,
        "orbit_uncertainty": "6",
        "minimum_orbit_intersection": ".0566857",
        "jupiter_tisserand_invariant": "3.033",
        "epoch_osculation": "2459000.5",
        "eccentricity": ".6390114037406944",
        "semi_major_axis": "2.685693048047228",
        "inclination": "7.682102297719324",
        "ascending_node_longitude": "228.3611162835965",
        "orbital_period": "1607.61847806409",
        "perihelion_distance": ".9695045633979444",
        "perihelion_argument": "128.547371896452",
        "aphelion_distance": "4.401881532696511",
        "perihelion_time": "2459569.285978918610",
        "mean_anomaly": "232.6296349509014",
        "mean_motion": ".2239337286254109",
        "equinox": "J2000",
        "orbit_class": {
            "orbit_class_type": "APO",
            "orbit_class_description": "Near-Earth asteroid orbits which cross the Earth’s orbit similar to that of 1862 Apollo",
            "orbit_class_range": "a (semi-major axis) > 1.0 AU; q (perihelion) < 1.017 AU"
        }
    },
    "is_sentry_object": false
}